[{"OBJECT_NAME":"HST","OBJECT_ID":"1990-037B","EPOCH":"2026-03-09T03:50:04.164288","MEAN_MOTION":15.29473555,"ECCENTRICITY":0.00018372,"INCLINATION":28.4717,"RA_OF_ASC_NODE":43.6133,"ARG_OF_PERICENTER":120.9992,"MEAN_ANOMALY":239.0785,"EPHEMERIS_TYPE":0,"CLASSIFICATION_TYPE":"U","NORAD_CAT_ID":20580,"ELEMENT_SET_NO":999,"REV_AT_EPOCH":77323,"BSTAR":0.0003002261,"MEAN_MOTION_DOT":9.063e-5,"MEAN_MOTION_DDOT":0},{"OBJECT_NAME":"STARLINK-35943","OBJECT_ID":"2025-286C","EPOCH":"2026-03-09T22:26:15.278784","MEAN_MOTION":15.30211812,"ECCENTRICITY":0.00011859,"INCLINATION":53.1623,"RA_OF_ASC_NODE":357.3559,"ARG_OF_PERICENTER":104.879,"MEAN_ANOMALY":255.2342,"EPHEMERIS_TYPE":0,"CLASSIFICATION_TYPE":"U","NORAD_CAT_ID":66927,"ELEMENT_SET_NO":999,"REV_AT_EPOCH":1545,"BSTAR":0.00097628406,"MEAN_MOTION_DOT":0.00028678,"MEAN_MOTION_DDOT":0}]
